STARLINK-36527          
1 67631U 26020Q   26050.01277385  .00279982  00000+0  12846-2 0  9998
2 67631  42.9970 255.2097 0002425 262.0998  97.9598 15.82098922  3146
STARLINK-36633          
1 67632U 26020R   26050.16668981 -.01902700  00000+0 -12301-1 0  9990
2 67632  42.9993 254.2720 0001575 272.2992 243.6097 15.78303165  4414
STARLINK-36637          
1 67633U 26020S   26050.04072885  .00257169  00000+0  15328-2 0  9992
2 67633  42.9963 255.4375 0001020 311.2277  48.8505 15.76395142  3148
STARLINK-36617          
1 67634U 26020T   26050.01075117  .00277398  00000+0  12721-2 0  9991
2 67634  42.9972 255.1937 0002625 242.9758 117.0846 15.82116284  3148
STARLINK-36627          
1 67635U 26020U   26050.03416093  .00257223  00000+0  15317-2 0  9995
2 67635  42.9969 255.3832 0000930 310.5248  49.5541 15.76416244  3147
STARLINK-36624          
1 67636U 26020V   26050.16668981  .00007436  00000+0  48634-4 0  9994
2 67636  42.9995 254.2992 0001643 282.8714 222.1948 15.76358797  4412
STARLINK-36610          
1 67637U 26020W   26050.03633397  .00239185  00000+0  14145-2 0  9990
2 67637  42.9963 255.4010 0005809 234.7414 125.2912 15.76609658  3141
STARLINK-36599          
1 67638U 26020X   26050.00659906  .00214567  00000+0  99361-3 0  9993
2 67638  42.9966 255.1598 0002775 228.5556 131.5078 15.82075329  3142
STARLINK-36595          
1 67639U 26020Y   26050.16668981 -.00008071  00000+0 -46611-4 0  9998
2 67639  42.9991 254.2048 0002109 274.2261 268.1662 15.76365231  4417
STARLINK-36570          
1 67640U 26020Z   26050.02977373  .00290378  00000+0  17179-2 0  9999
2 67640  42.9967 255.3474 0001663 272.5867  87.4813 15.76469999  3149
STARLINK-36514          
1 67641U 26020AA  26050.00351885  .00262782  00000+0  12085-2 0  9991
2 67641  42.9976 255.1321 0002246 247.3359 112.7275 15.82095097  3148
STARLINK-36556          
1 67642U 26020AB  26050.16668981  .00035687  00000+0  22135-3 0  9997
2 67642  42.9984 254.3598 0001897 270.8177 209.3636 15.76352388  4412
