CCSDS_OMM_VERS = 2.0
CREATION_DATE  = 
ORIGINATOR     = 

OBJECT_NAME    = STARLINK-36527
OBJECT_ID      = 2026-020Q
CENTER_NAME    = EARTH
REF_FRAME      = TEME
TIME_SYSTEM    = UTC
MEAN_ELEMENT_THEORY = SGP/SGP4

EPOCH          = 2026-02-19T00:18:23.660640
MEAN_MOTION    = 15.82098922
ECCENTRICITY   = .0002425
INCLINATION    = 42.9970
RA_OF_ASC_NODE = 255.2097
ARG_OF_PERICENTER = 262.0998
MEAN_ANOMALY   = 97.9598

EPHEMERIS_TYPE = 0
CLASSIFICATION_TYPE = U
NORAD_CAT_ID   = 67631
ELEMENT_SET_NO = 999
REV_AT_EPOCH   = 314
BSTAR          = .12846E-2
MEAN_MOTION_DOT = .279982E-2
MEAN_MOTION_DDOT = 0

CCSDS_OMM_VERS = 2.0
CREATION_DATE  = 
ORIGINATOR     = 

OBJECT_NAME    = STARLINK-36633
OBJECT_ID      = 2026-020R
CENTER_NAME    = EARTH
REF_FRAME      = TEME
TIME_SYSTEM    = UTC
MEAN_ELEMENT_THEORY = SGP/SGP4

EPOCH          = 2026-02-19T04:00:01.999584
MEAN_MOTION    = 15.78303165
ECCENTRICITY   = .0001575
INCLINATION    = 42.9993
RA_OF_ASC_NODE = 254.2720
ARG_OF_PERICENTER = 272.2992
MEAN_ANOMALY   = 243.6097

EPHEMERIS_TYPE = 0
CLASSIFICATION_TYPE = U
NORAD_CAT_ID   = 67632
ELEMENT_SET_NO = 999
REV_AT_EPOCH   = 441
BSTAR          = -.12301E-1
MEAN_MOTION_DOT = -.19027E-1
MEAN_MOTION_DDOT = 0

CCSDS_OMM_VERS = 2.0
CREATION_DATE  = 
ORIGINATOR     = 

OBJECT_NAME    = STARLINK-36637
OBJECT_ID      = 2026-020S
CENTER_NAME    = EARTH
REF_FRAME      = TEME
TIME_SYSTEM    = UTC
MEAN_ELEMENT_THEORY = SGP/SGP4

EPOCH          = 2026-02-19T00:58:38.972640
MEAN_MOTION    = 15.76395142
ECCENTRICITY   = .000102
INCLINATION    = 42.9963
RA_OF_ASC_NODE = 255.4375
ARG_OF_PERICENTER = 311.2277
MEAN_ANOMALY   = 48.8505

EPHEMERIS_TYPE = 0
CLASSIFICATION_TYPE = U
NORAD_CAT_ID   = 67633
ELEMENT_SET_NO = 999
REV_AT_EPOCH   = 314
BSTAR          = .15328E-2
MEAN_MOTION_DOT = .257169E-2
MEAN_MOTION_DDOT = 0

CCSDS_OMM_VERS = 2.0
CREATION_DATE  = 
ORIGINATOR     = 

OBJECT_NAME    = STARLINK-36617
OBJECT_ID      = 2026-020T
CENTER_NAME    = EARTH
REF_FRAME      = TEME
TIME_SYSTEM    = UTC
MEAN_ELEMENT_THEORY = SGP/SGP4

EPOCH          = 2026-02-19T00:15:28.901088
MEAN_MOTION    = 15.82116284
ECCENTRICITY   = .0002625
INCLINATION    = 42.9972
RA_OF_ASC_NODE = 255.1937
ARG_OF_PERICENTER = 242.9758
MEAN_ANOMALY   = 117.0846

EPHEMERIS_TYPE = 0
CLASSIFICATION_TYPE = U
NORAD_CAT_ID   = 67634
ELEMENT_SET_NO = 999
REV_AT_EPOCH   = 314
BSTAR          = .12721E-2
MEAN_MOTION_DOT = .277398E-2
MEAN_MOTION_DDOT = 0

CCSDS_OMM_VERS = 2.0
CREATION_DATE  = 
ORIGINATOR     = 

OBJECT_NAME    = STARLINK-36627
OBJECT_ID      = 2026-020U
CENTER_NAME    = EARTH
REF_FRAME      = TEME
TIME_SYSTEM    = UTC
MEAN_ELEMENT_THEORY = SGP/SGP4

EPOCH          = 2026-02-19T00:49:11.504352
MEAN_MOTION    = 15.76416244
ECCENTRICITY   = .000093
INCLINATION    = 42.9969
RA_OF_ASC_NODE = 255.3832
ARG_OF_PERICENTER = 310.5248
MEAN_ANOMALY   = 49.5541

EPHEMERIS_TYPE = 0
CLASSIFICATION_TYPE = U
NORAD_CAT_ID   = 67635
ELEMENT_SET_NO = 999
REV_AT_EPOCH   = 314
BSTAR          = .15317E-2
MEAN_MOTION_DOT = .257223E-2
MEAN_MOTION_DDOT = 0

CCSDS_OMM_VERS = 2.0
CREATION_DATE  = 
ORIGINATOR     = 

OBJECT_NAME    = STARLINK-36624
OBJECT_ID      = 2026-020V
CENTER_NAME    = EARTH
REF_FRAME      = TEME
TIME_SYSTEM    = UTC
MEAN_ELEMENT_THEORY = SGP/SGP4

EPOCH          = 2026-02-19T04:00:01.999584
MEAN_MOTION    = 15.76358797
ECCENTRICITY   = .0001643
INCLINATION    = 42.9995
RA_OF_ASC_NODE = 254.2992
ARG_OF_PERICENTER = 282.8714
MEAN_ANOMALY   = 222.1948

EPHEMERIS_TYPE = 0
CLASSIFICATION_TYPE = U
NORAD_CAT_ID   = 67636
ELEMENT_SET_NO = 999
REV_AT_EPOCH   = 441
BSTAR          = .48634E-4
MEAN_MOTION_DOT = .7436E-4
MEAN_MOTION_DDOT = 0

CCSDS_OMM_VERS = 2.0
CREATION_DATE  = 
ORIGINATOR     = 

OBJECT_NAME    = STARLINK-36610
OBJECT_ID      = 2026-020W
CENTER_NAME    = EARTH
REF_FRAME      = TEME
TIME_SYSTEM    = UTC
MEAN_ELEMENT_THEORY = SGP/SGP4

EPOCH          = 2026-02-19T00:52:19.255008
MEAN_MOTION    = 15.76609658
ECCENTRICITY   = .0005809
INCLINATION    = 42.9963
RA_OF_ASC_NODE = 255.4010
ARG_OF_PERICENTER = 234.7414
MEAN_ANOMALY   = 125.2912

EPHEMERIS_TYPE = 0
CLASSIFICATION_TYPE = U
NORAD_CAT_ID   = 67637
ELEMENT_SET_NO = 999
REV_AT_EPOCH   = 314
BSTAR          = .14145E-2
MEAN_MOTION_DOT = .239185E-2
MEAN_MOTION_DDOT = 0

CCSDS_OMM_VERS = 2.0
CREATION_DATE  = 
ORIGINATOR     = 

OBJECT_NAME    = STARLINK-36599
OBJECT_ID      = 2026-020X
CENTER_NAME    = EARTH
REF_FRAME      = TEME
TIME_SYSTEM    = UTC
MEAN_ELEMENT_THEORY = SGP/SGP4

EPOCH          = 2026-02-19T00:09:30.158784
MEAN_MOTION    = 15.82075329
ECCENTRICITY   = .0002775
INCLINATION    = 42.9966
RA_OF_ASC_NODE = 255.1598
ARG_OF_PERICENTER = 228.5556
MEAN_ANOMALY   = 131.5078

EPHEMERIS_TYPE = 0
CLASSIFICATION_TYPE = U
NORAD_CAT_ID   = 67638
ELEMENT_SET_NO = 999
REV_AT_EPOCH   = 314
BSTAR          = .99361E-3
MEAN_MOTION_DOT = .214567E-2
MEAN_MOTION_DDOT = 0

CCSDS_OMM_VERS = 2.0
CREATION_DATE  = 
ORIGINATOR     = 

OBJECT_NAME    = STARLINK-36595
OBJECT_ID      = 2026-020Y
CENTER_NAME    = EARTH
REF_FRAME      = TEME
TIME_SYSTEM    = UTC
MEAN_ELEMENT_THEORY = SGP/SGP4

EPOCH          = 2026-02-19T04:00:01.999584
MEAN_MOTION    = 15.76365231
ECCENTRICITY   = .0002109
INCLINATION    = 42.9991
RA_OF_ASC_NODE = 254.2048
ARG_OF_PERICENTER = 274.2261
MEAN_ANOMALY   = 268.1662

EPHEMERIS_TYPE = 0
CLASSIFICATION_TYPE = U
NORAD_CAT_ID   = 67639
ELEMENT_SET_NO = 999
REV_AT_EPOCH   = 441
BSTAR          = -.46611E-4
MEAN_MOTION_DOT = -.8071E-4
MEAN_MOTION_DDOT = 0

CCSDS_OMM_VERS = 2.0
CREATION_DATE  = 
ORIGINATOR     = 

OBJECT_NAME    = STARLINK-36570
OBJECT_ID      = 2026-020Z
CENTER_NAME    = EARTH
REF_FRAME      = TEME
TIME_SYSTEM    = UTC
MEAN_ELEMENT_THEORY = SGP/SGP4

EPOCH          = 2026-02-19T00:42:52.450272
MEAN_MOTION    = 15.76469999
ECCENTRICITY   = .0001663
INCLINATION    = 42.9967
RA_OF_ASC_NODE = 255.3474
ARG_OF_PERICENTER = 272.5867
MEAN_ANOMALY   = 87.4813

EPHEMERIS_TYPE = 0
CLASSIFICATION_TYPE = U
NORAD_CAT_ID   = 67640
ELEMENT_SET_NO = 999
REV_AT_EPOCH   = 314
BSTAR          = .17179E-2
MEAN_MOTION_DOT = .290378E-2
MEAN_MOTION_DDOT = 0

CCSDS_OMM_VERS = 2.0
CREATION_DATE  = 
ORIGINATOR     = 

OBJECT_NAME    = STARLINK-36514
OBJECT_ID      = 2026-020AA
CENTER_NAME    = EARTH
REF_FRAME      = TEME
TIME_SYSTEM    = UTC
MEAN_ELEMENT_THEORY = SGP/SGP4

EPOCH          = 2026-02-19T00:05:04.028640
MEAN_MOTION    = 15.82095097
ECCENTRICITY   = .0002246
INCLINATION    = 42.9976
RA_OF_ASC_NODE = 255.1321
ARG_OF_PERICENTER = 247.3359
MEAN_ANOMALY   = 112.7275

EPHEMERIS_TYPE = 0
CLASSIFICATION_TYPE = U
NORAD_CAT_ID   = 67641
ELEMENT_SET_NO = 999
REV_AT_EPOCH   = 314
BSTAR          = .12085E-2
MEAN_MOTION_DOT = .262782E-2
MEAN_MOTION_DDOT = 0

CCSDS_OMM_VERS = 2.0
CREATION_DATE  = 
ORIGINATOR     = 

OBJECT_NAME    = STARLINK-36556
OBJECT_ID      = 2026-020AB
CENTER_NAME    = EARTH
REF_FRAME      = TEME
TIME_SYSTEM    = UTC
MEAN_ELEMENT_THEORY = SGP/SGP4

EPOCH          = 2026-02-19T04:00:01.999584
MEAN_MOTION    = 15.76352388
ECCENTRICITY   = .0001897
INCLINATION    = 42.9984
RA_OF_ASC_NODE = 254.3598
ARG_OF_PERICENTER = 270.8177
MEAN_ANOMALY   = 209.3636

EPHEMERIS_TYPE = 0
CLASSIFICATION_TYPE = U
NORAD_CAT_ID   = 67642
ELEMENT_SET_NO = 999
REV_AT_EPOCH   = 441
BSTAR          = .22135E-3
MEAN_MOTION_DOT = .35687E-3
MEAN_MOTION_DDOT = 0

